NORAD_CAT_ID,OBJECT_NAME,OBJECT_TYPE,EPOCH,MEAN_MOTION,ECCENTRICITY,INCLINATION,RA_OF_ASC_NODE,ARG_OF_PERICENTER,MEAN_ANOMALY,BSTAR,MEAN_MOTION_DOT,MEAN_MOTION_DDOT,TLE_LINE0,TLE_LINE1,TLE_LINE2,SEMIMAJOR_AXIS,PERIOD,APOGEE,PERIGEE,DECAYED
56473.0,STARLINK-5486,PAYLOAD,2024-03-16 04:16:07,14.98332045,0.0002997,70.0005,148.714,262.6839,97.398,4.3548e-05,4.27e-06,0.0,0 STARLINK-5486,1 56473U 23064AB  24076.17786273  .00000427  00000-0  43548-4 0  9991,2 56473  70.0005 148.7140 0002997 262.6839  97.3980 14.98332045 47722,6950.187,96.107,574.135,569.969,0.0
56473.0,STARLINK-5486,PAYLOAD,2024-03-16 13:52:55,14.98329767,0.0003147,70.0001,147.7035,267.0968,92.9831,1.3886e-05,7.3e-07,0.0,0 STARLINK-5486,1 56473U 23064AB  24076.57842480  .00000073  00000-0  13886-4 0  9997,2 56473  70.0001 147.7035 0003147 267.0968  92.9831 14.98329767 47420,6950.194,96.107,574.246,569.871,0.0
56473.0,STARLINK-5486,PAYLOAD,2024-03-17 04:18:08,14.98330394,0.0003093,70.0001,146.1886,267.0539,93.0266,-4.4231e-05,-6.21e-06,0.0,0 STARLINK-5486,1 56473U 23064AB  24077.17926592 -.00000621  00000-0 -44231-4 0  9990,2 56473  70.0001 146.1886 0003093 267.0539  93.0266 14.98330394 47872,6950.192,96.107,574.206,569.907,0.0
56473.0,STARLINK-5486,PAYLOAD,2024-03-17 13:54:57,14.98328987,0.0003115,70.0,145.1787,267.5243,92.5559,-5.3596e-05,-7.32e-06,0.0,0 STARLINK-5486,1 56473U 23064AB  24077.57982707 -.00000732  00000-0 -53596-4 0  9991,2 56473  70.0000 145.1787 0003115 267.5243  92.5559 14.98328987 47573,6950.196,96.107,574.226,569.896,0.0
56473.0,STARLINK-5486,PAYLOAD,2024-03-18 04:20:09,14.98330718,0.0003189,69.9997,143.6637,268.9161,91.1633,1.3154e-05,6.4e-07,0.0,0 STARLINK-5486,1 56473U 23064AB  24078.18066363  .00000064  00000-0  13154-4 0  9992,2 56473  69.9997 143.6637 0003189 268.9161  91.1633 14.98330718 48021,6950.191,96.107,574.272,569.839,0.0
56473.0,STARLINK-5486,PAYLOAD,2024-03-18 12:20:49,14.98333012,0.0003134,69.9998,142.8222,267.6265,92.4535,4.1589e-05,4.03e-06,0.0,0 STARLINK-5486,1 56473U 23064AB  24078.51446091  .00000403  00000-0  41589-4 0  9999,2 56473  69.9998 142.8222 0003134 267.6265  92.4535 14.98333012 47714,6950.184,96.107,574.227,569.87,0.0
56473.0,STARLINK-5486,PAYLOAD,2024-03-19 12:22:50,14.98334371,0.000305,69.9998,140.2974,266.2726,93.8084,9.1743e-05,1.002e-05,0.0,0 STARLINK-5486,1 56473U 23064AB  24079.51585701  .00001002  00000-0  91743-4 0  9995,2 56473  69.9998 140.2974 0003050 266.2726  93.8084 14.98334371 47863,6950.179,96.107,574.164,569.925,0.0
56473.0,STARLINK-5486,PAYLOAD,2024-03-19 21:59:38,14.98335327,0.0002881,70.0002,139.2889,259.8178,100.2656,4.1952e-05,4.08e-06,0.0,0 STARLINK-5486,1 56473U 23064AB  24079.91641631  .00000408  00000-0  41952-4 0  9990,2 56473  70.0002 139.2889 0002881 259.8178 100.2656 14.98335327 48282,6950.176,96.107,574.044,570.039,0.0
56473.0,STARLINK-5486,PAYLOAD,2024-03-20 14:00:59,14.98333351,0.0002939,69.9998,137.6054,263.6601,96.4224,-1.0755e-05,-2.21e-06,0.0,0 STARLINK-5486,1 56473U 23064AB  24080.58401809 -.00000221  00000-0 -10755-4 0  9998,2 56473  69.9998 137.6054 0002939 263.6601  96.4224 14.98333351 48021,6950.183,96.107,574.09,570.005,0.0
56473.0,STARLINK-5486,PAYLOAD,2024-03-21 04:26:12,14.98328419,0.0002886,69.9998,136.0903,265.9744,94.1085,-8.6726e-05,-1.128e-05,0.0,0 STARLINK-5486,1 56473U 23064AB  24081.18486318 -.00001128  00000-0 -86726-4 0  9991,2 56473  69.9998 136.0903 0002886 265.9744  94.1085 14.98328419 48479,6950.198,96.107,574.069,570.057,0.0
56473.0,STARLINK-5486,PAYLOAD,2024-03-21 12:26:52,14.98329273,0.0002856,69.9998,135.2485,263.7241,96.3592,-6.4245e-05,-8.59e-06,0.0,0 STARLINK-5486,1 56473U 23064AB  24081.51866207 -.00000859  00000-0 -64245-4 0  9999,2 56473  69.9998 135.2485 0002856 263.7241  96.3592 14.98329273 48162,6950.195,96.107,574.045,570.075,0.0
56473.0,STARLINK-5486,PAYLOAD,2024-03-22 04:28:12,14.98332801,0.000282,69.9998,133.565,260.5548,99.5293,9.5237e-05,1.044e-05,0.0,0 STARLINK-5486,1 56473U 23064AB  24082.18625401  .00001044  00000-0  95237-4 0  9992,2 56473  69.9998 133.5650 0002820 260.5548  99.5293 14.98332801 48628,6950.184,96.107,574.009,570.089,0.0
56473.0,STARLINK-5486,PAYLOAD,2024-03-22 12:28:52,14.98337909,0.0002825,69.9997,132.7232,265.1749,94.9088,8.9752e-05,9.78e-06,0.0,0 STARLINK-5486,1 56473U 23064AB  24082.52005025  .00000978  00000-0  89752-4 0  9994,2 56473  69.9997 132.7232 0002825 265.1749  94.9088 14.98337909 48314,6950.168,96.106,573.997,570.07,0.0
56473.0,STARLINK-5486,PAYLOAD,2024-03-23 04:30:14,14.98319226,0.0002552,70.0012,131.0409,253.9002,106.1876,-1.3392e-05,-2.53e-06,0.0,0 STARLINK-5486,1 56473U 23064AB  24083.18766577 -.00000253  00000-0 -13392-4 0  9998,2 56473  70.0012 131.0409 0002552 253.9002 106.1876 14.98319226 48770,6950.226,96.108,573.865,570.318,0.0
56473.0,STARLINK-5486,PAYLOAD,2024-03-23 20:31:34,14.98325484,0.0003016,70.0003,129.3553,264.6503,95.4312,-2.3041e-05,-3.68e-06,0.0,0 STARLINK-5486,1 56473U 23064AB  24083.85526551 -.00000368  00000-0 -23041-4 0  9997,2 56473  70.0003 129.3553 0003016 264.6503  95.4312 14.98325484 48511,6950.207,96.107,574.168,569.976,0.0
56473.0,STARLINK-5486,PAYLOAD,2024-03-24 04:32:14,14.98331492,0.0002904,70.0006,128.517,261.168,98.9151,-4.0834e-05,-5.8e-06,0.0,0 STARLINK-5486,1 56473U 23064AB  24084.18906242 -.00000580  00000-0 -40834-4 0  9998,2 56473  70.0006 128.5170 0002904 261.1680  98.9151 14.98331492 48923,6950.188,96.107,574.072,570.035,0.0
56473.0,STARLINK-5486,PAYLOAD,2024-03-24 12:32:54,14.98341871,0.0002722,69.9997,127.672,263.9546,96.1303,9.438e-05,1.034e-05,0.0,0 STARLINK-5486,1 56473U 23064AB  24084.52285107  .00001034  00000-0  94380-4 0  9994,2 56473  69.9997 127.6720 0002722 263.9546  96.1303 14.98341871 48975,6950.156,96.106,573.913,570.129,0.0
56473.0,STARLINK-5486,PAYLOAD,2024-03-24 20:33:35,14.98342607,0.0002605,70.0,126.8291,275.3548,84.7313,-0.00015375,-1.928e-05,0.0,0 STARLINK-5486,1 56473U 23064AB  24084.85665673 -.00001928  00000-0 -15375-3 0  9990,2 56473  70.0000 126.8291 0002605 275.3548  84.7313 14.98342607 49025,6950.154,96.106,573.829,570.208,0.0
56473.0,STARLINK-5486,PAYLOAD,2024-03-25 04:34:16,14.9831836,0.000272,69.9987,125.9882,268.8679,91.2168,0.00010447,1.153e-05,0.0,0 STARLINK-5486,1 56473U 23064AB  24085.19046530  .00001153  00000-0  10447-3 0  9996,2 56473  69.9987 125.9882 0002720 268.8679  91.2168 14.98318360 49077,6950.229,96.108,573.984,570.203,0.0
56473.0,STARLINK-5486,PAYLOAD,2024-03-25 12:34:56,14.9832289,0.0002892,69.9986,125.146,267.3596,92.7232,0.00013449,1.512e-05,0.0,0 STARLINK-5486,1 56473U 23064AB  24085.52426350  .00001512  00000-0  13449-3 0  9999,2 56473  69.9986 125.1460 0002892 267.3596  92.7232 14.98322890 48768,6950.215,96.107,574.09,570.07,0.0
56473.0,STARLINK-5486,PAYLOAD,2024-03-26 04:36:17,14.98324546,0.0002746,69.9991,123.4636,270.4712,89.6132,-0.00012337,-1.564e-05,0.0,0 STARLINK-5486,1 56473U 23064AB  24086.19187294 -.00001564  00000-0 -12337-3 0  9998,2 56473  69.9991 123.4636 0002746 270.4712  89.6132 14.98324546 49229,6950.21,96.107,573.983,570.166,0.0
56473.0,STARLINK-5486,PAYLOAD,2024-03-26 12:36:58,14.98324478,0.0002734,69.9991,122.622,270.0842,90.0003,-0.0001567,-1.962e-05,0.0,0 STARLINK-5486,1 56473U 23064AB  24086.52567521 -.00001962  00000-0 -15670-3 0  9995,2 56473  69.9991 122.6220 0002734 270.0842  90.0003 14.98324478 48918,6950.21,96.107,573.975,570.175,0.0
56473.0,STARLINK-5486,PAYLOAD,2024-03-26 19:01:30,14.98331233,0.0002771,69.9991,121.9489,270.0305,90.0537,-0.0001374,-1.732e-05,0.0,0 STARLINK-5486,1 56473U 23064AB  24086.79271089 -.00001732  00000-0 -13740-3 0  9996,2 56473  69.9991 121.9489 0002771 270.0305  90.0537 14.98331233 48955,6950.189,96.107,573.98,570.128,0.0
56473.0,STARLINK-5486,PAYLOAD,2024-03-27 04:38:18,14.98327726,0.0002842,69.9987,120.9388,272.4273,87.656,0.00010772,1.192e-05,0.0,0 STARLINK-5486,1 56473U 23064AB  24087.19326729  .00001192  00000-0  10772-3 0  9993,2 56473  69.9987 120.9388 0002842 272.4273  87.6560 14.98327726 49373,6950.2,96.107,574.04,570.09,0.0
56473.0,STARLINK-5486,PAYLOAD,2024-03-27 11:02:50,14.98329101,0.0002935,69.9986,120.2653,272.8242,87.2581,6.8279e-05,7.22e-06,0.0,0 STARLINK-5486,1 56473U 23064AB  24087.46030793  .00000722  00000-0  68279-4 0  9990,2 56473  69.9986 120.2653 0002935 272.8242  87.2581 14.98329101 49056,6950.196,96.107,574.101,570.021,0.0
56473.0,STARLINK-5486,PAYLOAD,2024-03-27 19:03:30,14.983382,0.0002951,69.9988,119.4235,271.538,88.5441,2.5132e-05,2.07e-06,0.0,0 STARLINK-5486,1 56473U 23064AB  24087.79410256  .00000207  00000-0  25132-4 0  9991,2 56473  69.9988 119.4235 0002951 271.5380  88.5441 14.98338200 49106,6950.168,96.106,574.084,569.982,0.0
56473.0,STARLINK-5486,PAYLOAD,2024-03-28 04:40:18,14.98334126,0.0003117,69.9982,118.414,267.5452,92.535,0.0001664,1.893e-05,0.0,0 STARLINK-5486,1 56473U 23064AB  24088.19466040  .00001893  00000-0  16640-3 0  9993,2 56473  69.9982 118.4140 0003117 267.5452  92.5350 14.98334126 49527,6950.18,96.107,574.212,569.879,0.0
56473.0,STARLINK-5486,PAYLOAD,2024-03-28 11:04:50,14.98337397,0.0003035,69.9984,117.7403,269.7363,90.3448,0.00019707,2.26e-05,0.0,0 STARLINK-5486,1 56473U 23064AB  24088.46169670  .00002260  00000-0  19707-3 0  9998,2 56473  69.9984 117.7403 0003035 269.7363  90.3448 14.98337397 49209,6950.17,96.107,574.144,569.926,0.0
56473.0,STARLINK-5486,PAYLOAD,2024-03-28 19:05:31,14.98332604,0.0003015,69.9985,116.8984,270.4485,89.6328,7.5273e-05,8.05e-06,0.0,0 STARLINK-5486,1 56473U 23064AB  24088.79550167  .00000805  00000-0  75273-4 0  9993,2 56473  69.9985 116.8984 0003015 270.4485  89.6328 14.98332604 49255,6950.185,96.107,574.145,569.954,0.0
56473.0,STARLINK-5486,PAYLOAD,2024-03-29 04:42:19,14.98333767,0.0002967,69.9986,115.8888,270.1347,89.9472,5.1452e-06,-3.2e-07,0.0,0 STARLINK-5486,1 56473U 23064AB  24089.19606160 -.00000032  00000-0  51452-5 0  9990,2 56473  69.9986 115.8888 0002967 270.1347  89.9472 14.98333767 49677,6950.181,96.107,574.108,569.984,0.0
